{
"type": "FeatureCollection",
"name": "panels",
"crs": { "type": "name", "properties": { "name": "urn:ogc:def:crs:OGC:1.3:CRS84" } },
"features": [
{ "type": "Feature", "properties": { "fid": 1, "handle": 1515, "block": -1, "etype": 18, "space": 0, "layer": "panels_27", "olinetype": "BYLAYER", "linetype": "", "color": "0,0,0,254", "ocolor": 256, "color24": -1, "transparency": 0, "lweight": -1, "linewidth": 0.0, "ltscale": 1.0, "visible": 1, "width": 0.0, "thickness": 0.0, "ext": "(3:0,0,0.1)", "panel_count": 27, "panel_id": null, "status": null }, "geometry": { "type": "Polygon", "coordinates": [ [ [ -7.530795017446692, 49.782011858295746 ], [ -7.53036312399325, 49.782032534086554 ], [ -7.530362908623347, 49.782032522524005 ], [ -7.530362709219308, 49.782032468578251 ], [ -7.530362545162927, 49.78203237749274 ], [ -7.530362432400234, 49.782032258120857 ], [ -7.530362381891601, 49.782032122065381 ], [ -7.530360028652844, 49.782012966700712 ], [ -7.530360045667503, 49.782012826211862 ], [ -7.53036012912134, 49.782012696063795 ], [ -7.530360270787659, 49.782012589086214 ], [ -7.530360456701315, 49.782012515824746 ], [ -7.530360668535349, 49.78201248350134 ], [ -7.530792561812999, 49.781991807725454 ], [ -7.530792777182763, 49.781991819287221 ], [ -7.530792976587043, 49.781991873232222 ], [ -7.53079314064404, 49.781991964317093 ], [ -7.530793253407657, 49.781992083688529 ], [ -7.530793303917431, 49.781992219743778 ], [ -7.530795657324661, 49.782011375094086 ], [ -7.530795640311267, 49.782011515582973 ], [ -7.530795556858625, 49.782011645731316 ], [ -7.530795415193309, 49.782011752709394 ], [ -7.530795229280372, 49.782011825971544 ], [ -7.530795017446692, 49.782011858295746 ] ], [ [ -7.530794220065, 49.782010996355865 ], [ -7.530791976598744, 49.781992735856171 ], [ -7.530361465909617, 49.782013345444462 ], [ -7.530363709216292, 49.782031605957748 ], [ -7.530794220065, 49.782010996355865 ] ] ] } },
{ "type": "Feature", "properties": { "fid": 2, "handle": 1530, "block": -1, "etype": 18, "space": 0, "layer": "panels_27", "olinetype": "BYLAYER", "linetype": "", "color": "0,0,0,254", "ocolor": 256, "color24": -1, "transparency": 0, "lweight": -1, "linewidth": 0.0, "ltscale": 1.0, "visible": 1, "width": 0.0, "thickness": 0.0, "ext": "(3:0,0,0.1)", "panel_count": 27, "panel_id": null, "status": null }, "geometry": { "type": "Polygon", "coordinates": [ [ [ -7.531735850458422, 49.781986249883566 ], [ -7.531303928510966, 49.782006930582384 ], [ -7.531303712876989, 49.782006918979832 ], [ -7.531303513273479, 49.782006864892672 ], [ -7.531303349149852, 49.782006773591128 ], [ -7.531303236498349, 49.782006653971685 ], [ -7.53130318629576, 49.782006517690057 ], [ -7.53130089072669, 49.781987359577876 ], [ -7.531300908100052, 49.78198721928193 ], [ -7.531300991723809, 49.78198708936803 ], [ -7.531301133374854, 49.78198698261123 ], [ -7.531301319123966, 49.781986909509406 ], [ -7.531301530705568, 49.781986877251029 ], [ -7.531733452477154, 49.781966196566962 ], [ -7.531733668110989, 49.781966208168718 ], [ -7.531733867714743, 49.781966262255125 ], [ -7.531734031838988, 49.78196635355603 ], [ -7.531734144491415, 49.781966473175025 ], [ -7.531734194695148, 49.781966609456418 ], [ -7.531736490432769, 49.781985767554453 ], [ -7.531736473060675, 49.781985907850427 ], [ -7.531736389438107, 49.781986037764618 ], [ -7.531736247788065, 49.781986144521923 ], [ -7.531736062039664, 49.781986217624407 ], [ -7.531735850458422, 49.781986249883566 ] ], [ [ -7.531735054422866, 49.781985387885506 ], [ -7.531732865932154, 49.781967124766453 ], [ -7.531302326733699, 49.781987739252344 ], [ -7.531304515064759, 49.78200600238479 ], [ -7.531735054422866, 49.781985387885506 ] ] ] } },
{ "type": "Feature", "properties": { "fid": 3, "handle": 1531, "block": -1, "etype": 18, "space": 0, "layer": "panels_27", "olinetype": "BYLAYER", "linetype": "", "color": "0,0,0,254", "ocolor": 256, "color24": -1, "transparency": 0, "lweight": -1, "linewidth": 0.0, "ltscale": 1.0, "visible": 1, "width": 0.0, "thickness": 0.0, "ext": "(3:0,0,0.1)", "panel_count": 27, "panel_id": null, "status": null }, "geometry": { "type": "Polygon", "coordinates": [ [ [ -7.531298588601806, 49.782007186250461 ], [ -7.530866779358528, 49.782027859905241 ], [ -7.530866564460659, 49.782027848418068 ], [ -7.530866365411705, 49.782027794728471 ], [ -7.530866201473091, 49.782027704031869 ], [ -7.530866088508716, 49.782027585104693 ], [ -7.530866037449833, 49.782027449455235 ], [ -7.530863580286963, 49.782008299073233 ], [ -7.530863596651717, 49.782008158240494 ], [ -7.530863679793717, 49.782008027672703 ], [ -7.530863821480826, 49.782007920297765 ], [ -7.530864007684196, 49.782007846747177 ], [ -7.530864219967279, 49.782007814303427 ], [ -7.53129602903492, 49.781987140663965 ], [ -7.531296243932644, 49.781987152150343 ], [ -7.531296442981845, 49.781987205839194 ], [ -7.531296606921067, 49.781987296535156 ], [ -7.531296719886361, 49.781987415461877 ], [ -7.531296770946381, 49.781987551111108 ], [ -7.531299228277573, 49.78200670147838 ], [ -7.531299211914087, 49.782006842311134 ], [ -7.531299128773283, 49.782006972879188 ], [ -7.531298987087182, 49.782007080254644 ], [ -7.531298800884532, 49.7820071538059 ], [ -7.531298588601806, 49.782007186250461 ] ], [ [ -7.531297788770962, 49.782006324431187 ], [ -7.531295446235594, 49.781988068681748 ], [ -7.530865019790701, 49.78200867612594 ], [ -7.530867362166633, 49.782026931889341 ], [ -7.531297788770962, 49.782006324431187 ] ] ] } },
{ "type": "Feature", "properties": { "fid": 4, "handle": 1532, "block": -1, "etype": 18, "space": 0, "layer": "panels_27", "olinetype": "BYLAYER", "linetype": "", "color": "0,0,0,254", "ocolor": 256, "color24": -1, "transparency": 0, "lweight": -1, "linewidth": 0.0, "ltscale": 1.0, "visible": 1, "width": 0.0, "thickness": 0.0, "ext": "(3:0,0,0.1)", "panel_count": 27, "panel_id": null, "status": null }, "geometry": { "type": "Polygon", "coordinates": [ [ [ -7.531733534565296, 49.781966923584477 ], [ -7.531301612787329, 49.781987604269077 ], [ -7.53130139715344, 49.781987592666525 ], [ -7.531301197550013, 49.781987538579344 ], [ -7.531301033426458, 49.781987447277807 ], [ -7.531300920775011, 49.781987327658356 ], [ -7.531300870572451, 49.781987191376729 ], [ -7.531298575005827, 49.781968033264413 ], [ -7.531298592379189, 49.78196789296846 ], [ -7.531298676002927, 49.78196776305456 ], [ -7.531298817653922, 49.781967656297759 ], [ -7.531299003402968, 49.78196758319595 ], [ -7.53129921498449, 49.781967550937587 ], [ -7.531731136586585, 49.781946870267731 ], [ -7.531731352220332, 49.78194688186948 ], [ -7.531731551824005, 49.781946935955915 ], [ -7.531731715948176, 49.781947027256813 ], [ -7.531731828600547, 49.781947146875808 ], [ -7.531731878804251, 49.781947283157216 ], [ -7.531734174539429, 49.781966441255385 ], [ -7.53173415716733, 49.781966581551359 ], [ -7.531734073544783, 49.781966711465536 ], [ -7.531733931894792, 49.781966818222841 ], [ -7.531733746146458, 49.781966891325318 ], [ -7.531733534565296, 49.781966923584477 ] ], [ [ -7.531732738530126, 49.781966061586402 ], [ -7.531730550041744, 49.781947798467208 ], [ -7.531300011012235, 49.781968412938916 ], [ -7.531302199340965, 49.781986676071497 ], [ -7.531732738530126, 49.781966061586402 ] ] ] } },
{ "type": "Feature", "properties": { "fid": 5, "handle": 1533, "block": -1, "etype": 18, "space": 0, "layer": "panels_27", "olinetype": "BYLAYER", "linetype": "", "color": "0,0,0,254", "ocolor": 256, "color24": -1, "transparency": 0, "lweight": -1, "linewidth": 0.0, "ltscale": 1.0, "visible": 1, "width": 0.0, "thickness": 0.0, "ext": "(3:0,0,0.1)", "panel_count": 27, "panel_id": null, "status": null }, "geometry": { "type": "Polygon", "coordinates": [ [ [ -7.531296109696375, 49.781987867749997 ], [ -7.530864300622356, 49.782008541389978 ], [ -7.530864085724575, 49.782008529902782 ], [ -7.530863886675704, 49.782008476213193 ], [ -7.530863722737162, 49.782008385516562 ], [ -7.530863609772841, 49.782008266589401 ], [ -7.530863558713988, 49.782008130939936 ], [ -7.530861101553688, 49.781988980557777 ], [ -7.530861117918446, 49.781988839725031 ], [ -7.530861201060427, 49.781988709157254 ], [ -7.530861342747489, 49.781988601782324 ], [ -7.530861528950791, 49.78198852823175 ], [ -7.530861741233793, 49.781988495787992 ], [ -7.531293550132177, 49.781967822163359 ], [ -7.531293765029814, 49.781967833649745 ], [ -7.531293964078929, 49.781967887338588 ], [ -7.531294128018081, 49.781967978034572 ], [ -7.531294240983322, 49.7819680969613 ], [ -7.531294292043309, 49.781968232610524 ], [ -7.531296749371931, 49.781987382977945 ], [ -7.531296733008438, 49.781987523810706 ], [ -7.531296649867659, 49.781987654378774 ], [ -7.531296508181602, 49.781987761754202 ], [ -7.531296321979022, 49.781987835305458 ], [ -7.531296109696375, 49.781987867749997 ] ], [ [ -7.531295309865921, 49.781987005930709 ], [ -7.531292967333005, 49.781968750181136 ], [ -7.530862541056826, 49.781989357610534 ], [ -7.53086488343031, 49.782007613374077 ], [ -7.531295309865921, 49.781987005930709 ] ] ] } },
{ "type": "Feature", "properties": { "fid": 6, "handle": 1534, "block": -1, "etype": 18, "space": 0, "layer": "panels_27", "olinetype": "BYLAYER", "linetype": "", "color": "0,0,0,254", "ocolor": 256, "color24": -1, "transparency": 0, "lweight": -1, "linewidth": 0.0, "ltscale": 1.0, "visible": 1, "width": 0.0, "thickness": 0.0, "ext": "(3:0,0,0.1)", "panel_count": 27, "panel_id": null, "status": null }, "geometry": { "type": "Polygon", "coordinates": [ [ [ -7.531727991696044, 49.781917317383673 ], [ -7.53129607400207, 49.781937997858563 ], [ -7.531295858408408, 49.781937986262321 ], [ -7.53129565883528, 49.781937932196811 ], [ -7.531295494721827, 49.781937840928208 ], [ -7.53129538205329, 49.781937721346395 ], [ -7.531295331803989, 49.781937585099087 ], [ -7.531293027451767, 49.781918427407355 ], [ -7.531293044770452, 49.781918287082149 ], [ -7.531293128368048, 49.781918157132687 ], [ -7.531293270020933, 49.781918050342306 ], [ -7.531293455794497, 49.781917977216111 ], [ -7.531293667413916, 49.781917944947658 ], [ -7.531725584932031, 49.781897264487533 ], [ -7.531725800525551, 49.781897276082972 ], [ -7.531726000098926, 49.781897330147721 ], [ -7.531726164212995, 49.781897421415685 ], [ -7.531726276882457, 49.781897540997051 ], [ -7.531726327132901, 49.781897677244146 ], [ -7.531728631653662, 49.781916834921695 ], [ -7.531728614336242, 49.781916975246922 ], [ -7.531728530739839, 49.781917105196669 ], [ -7.531728389087957, 49.781917211987555 ], [ -7.53172820331511, 49.781917285114432 ], [ -7.531727991696044, 49.781917317383673 ] ], [ [ -7.531727195455726, 49.781916455395375 ], [ -7.531724998592182, 49.781898192677147 ], [ -7.531294463646811, 49.781918806939188 ], [ -7.531296660350711, 49.781937069670825 ], [ -7.531727195455726, 49.781916455395375 ] ] ] } },
{ "type": "Feature", "properties": { "fid": 7, "handle": 1535, "block": -1, "etype": 18, "space": 0, "layer": "panels_27", "olinetype": "BYLAYER", "linetype": "", "color": "0,0,0,254", "ocolor": 256, "color24": -1, "transparency": 0, "lweight": -1, "linewidth": 0.0, "ltscale": 1.0, "visible": 1, "width": 0.0, "thickness": 0.0, "ext": "(3:0,0,0.1)", "panel_count": 27, "panel_id": null, "status": null }, "geometry": { "type": "Polygon", "coordinates": [ [ [ -7.53129072124523, 49.781938254141529 ], [ -7.530858917469595, 49.78195892751426 ], [ -7.530858702593946, 49.781958916030504 ], [ -7.530858503561805, 49.781958862352731 ], [ -7.530858339628997, 49.781958771674098 ], [ -7.530858226655574, 49.781958652767536 ], [ -7.530858175571409, 49.781958517136921 ], [ -7.530855713602865, 49.781939366984894 ], [ -7.530855729937461, 49.781939226136231 ], [ -7.530855813064903, 49.781939095548999 ], [ -7.530855954752823, 49.781938988155645 ], [ -7.530856140969417, 49.781938914591692 ], [ -7.530856353273069, 49.781938882142406 ], [ -7.531288156873074, 49.781918208785029 ], [ -7.531288371748578, 49.781918220267968 ], [ -7.531288570780963, 49.781918273945003 ], [ -7.531288734714384, 49.781918364622996 ], [ -7.531288847688726, 49.781918483529111 ], [ -7.531288898774025, 49.781918619159498 ], [ -7.531291360910883, 49.781937769296746 ], [ -7.531291344577553, 49.781937910145444 ], [ -7.531291261451309, 49.781938040732967 ], [ -7.531291119764398, 49.781938148126812 ], [ -7.531290933548524, 49.781938221691441 ], [ -7.53129072124523, 49.781938254141529 ] ], [ [ -7.531289921302273, 49.781937392327592 ], [ -7.531287574185738, 49.781919136797413 ], [ -7.530857153208604, 49.781939743959583 ], [ -7.530859500165709, 49.781957999503739 ], [ -7.531289921302273, 49.781937392327592 ] ] ] } },
{ "type": "Feature", "properties": { "fid": 8, "handle": 1536, "block": -1, "etype": 18, "space": 0, "layer": "panels_27", "olinetype": "BYLAYER", "linetype": "", "color": "0,0,0,254", "ocolor": 256, "color24": -1, "transparency": 0, "lweight": -1, "linewidth": 0.0, "ltscale": 1.0, "visible": 1, "width": 0.0, "thickness": 0.0, "ext": "(3:0,0,0.1)", "panel_count": 27, "panel_id": null, "status": null }, "geometry": { "type": "Polygon", "coordinates": [ [ [ -7.53172566694267, 49.78189799150875 ], [ -7.531293749418174, 49.7819186719694 ], [ -7.531293533824594, 49.781918660373158 ], [ -7.53129333425155, 49.781918606307634 ], [ -7.531293170138169, 49.781918515039031 ], [ -7.531293057469687, 49.781918395457211 ], [ -7.531293007220416, 49.781918259209888 ], [ -7.531290702870644, 49.781899101518022 ], [ -7.531290720189333, 49.781898961192816 ], [ -7.531290803786907, 49.781898831243367 ], [ -7.531290945439742, 49.781898724452972 ], [ -7.531291131213237, 49.781898651326792 ], [ -7.531291342832578, 49.781898619058339 ], [ -7.531723260181215, 49.781877938612467 ], [ -7.531723475774647, 49.781877950207914 ], [ -7.531723675347942, 49.781878004272677 ], [ -7.531723839461938, 49.781878095540655 ], [ -7.531723952131348, 49.78187821512202 ], [ -7.531724002381758, 49.781878351369109 ], [ -7.53172630690007, 49.7818975090468 ], [ -7.531726289582645, 49.781897649372041 ], [ -7.531726205986265, 49.78189777932176 ], [ -7.531726064334431, 49.78189788611266 ], [ -7.531725878561648, 49.781897959239522 ], [ -7.53172566694267, 49.78189799150875 ] ], [ [ -7.531724870702734, 49.781897129520431 ], [ -7.531722673841527, 49.781878866802089 ], [ -7.531292139065089, 49.781899481049905 ], [ -7.531294335766652, 49.781917743781683 ], [ -7.531724870702734, 49.781897129520431 ] ] ] } },
{ "type": "Feature", "properties": { "fid": 9, "handle": 1537, "block": -1, "etype": 18, "space": 0, "layer": "panels_27", "olinetype": "BYLAYER", "linetype": "", "color": "0,0,0,254", "ocolor": 256, "color24": -1, "transparency": 0, "lweight": -1, "linewidth": 0.0, "ltscale": 1.0, "visible": 1, "width": 0.0, "thickness": 0.0, "ext": "(3:0,0,0.1)", "panel_count": 27, "panel_id": null, "status": null }, "geometry": { "type": "Polygon", "coordinates": [ [ [ -7.531288237491942, 49.781918935873094 ], [ -7.530856433885559, 49.781939609230996 ], [ -7.530856219009998, 49.781939597747225 ], [ -7.530856019977938, 49.781939544069452 ], [ -7.530855856045201, 49.781939453390805 ], [ -7.530855743071831, 49.781939334484242 ], [ -7.530855691987699, 49.781939198853628 ], [ -7.530853230021729, 49.781920048701451 ], [ -7.530853246356331, 49.781919907852782 ], [ -7.530853329483752, 49.781919777265557 ], [ -7.530853471171623, 49.78191966987221 ], [ -7.530853657388148, 49.781919596308263 ], [ -7.53085386969172, 49.781919563858978 ], [ -7.531285673122473, 49.781898890516423 ], [ -7.531285887997893, 49.781898901999377 ], [ -7.531286087030195, 49.781898955676425 ], [ -7.531286250963542, 49.781899046354425 ], [ -7.531286363937832, 49.781899165260555 ], [ -7.531286415023098, 49.781899300890942 ], [ -7.531288877157383, 49.781918451028346 ], [ -7.53128886082405, 49.781918591877037 ], [ -7.531288777697825, 49.781918722464553 ], [ -7.531288636010962, 49.781918829858384 ], [ -7.531288449795156, 49.781918903423019 ], [ -7.531288237491942, 49.781918935873094 ] ], [ [ -7.531287437549373, 49.781918074059128 ], [ -7.531285090435293, 49.781899818528814 ], [ -7.530854669626869, 49.781920425676198 ], [ -7.53085701658152, 49.781938681220488 ], [ -7.531287437549373, 49.781918074059128 ] ] ] } },
{ "type": "Feature", "properties": { "fid": 10, "handle": 1538, "block": -1, "etype": 18, "space": 0, "layer": "panels_27", "olinetype": "BYLAYER", "linetype": "", "color": "0,0,0,254", "ocolor": 256, "color24": -1, "transparency": 0, "lweight": -1, "linewidth": 0.0, "ltscale": 1.0, "visible": 1, "width": 0.0, "thickness": 0.0, "ext": "(3:0,0,0.1)", "panel_count": 27, "panel_id": null, "status": null }, "geometry": { "type": "Polygon", "coordinates": [ [ [ -7.531720152481365, 49.781848383947526 ], [ -7.531288245685997, 49.781869063880428 ], [ -7.531288030191885, 49.781869052299854 ], [ -7.531287830693699, 49.781868998288083 ], [ -7.531287666605156, 49.781868907101178 ], [ -7.531287553894157, 49.781868787612758 ], [ -7.531287503528927, 49.781868651450587 ], [ -7.531285177375518, 49.781849494802607 ], [ -7.531285194558453, 49.781849354404869 ], [ -7.531285278091179, 49.781849224367193 ], [ -7.531285419748825, 49.781849117493451 ], [ -7.531285605583379, 49.781849044306732 ], [ -7.531285817297042, 49.781849012013225 ], [ -7.531717723916588, 49.781828332095174 ], [ -7.531717939410552, 49.781828343674945 ], [ -7.531718138908986, 49.781828397685949 ], [ -7.531718302998145, 49.781828488872236 ], [ -7.531718415710064, 49.7818286083602 ], [ -7.531718466076441, 49.781828744522137 ], [ -7.531720792398362, 49.781847901155871 ], [ -7.531720775216691, 49.781848041553644 ], [ -7.531720691685156, 49.781848171591591 ], [ -7.531720550028513, 49.781848278465837 ], [ -7.531720364194674, 49.781848351653217 ], [ -7.531720152481365, 49.781848383947526 ] ], [ [ -7.531719355730805, 49.781847521983622 ], [ -7.531717138084555, 49.781829260260466 ], [ -7.53128661404018, 49.781849873980356 ], [ -7.531288831526816, 49.781868135717019 ], [ -7.531719355730805, 49.781847521983622 ] ] ] } },
{ "type": "Feature", "properties": { "fid": 11, "handle": 1539, "block": -1, "etype": 18, "space": 0, "layer": "panels_27", "olinetype": "BYLAYER", "linetype": "", "color": "0,0,0,254", "ocolor": 256, "color24": -1, "transparency": 0, "lweight": -1, "linewidth": 0.0, "ltscale": 1.0, "visible": 1, "width": 0.0, "thickness": 0.0, "ext": "(3:0,0,0.1)", "panel_count": 27, "panel_id": null, "status": null }, "geometry": { "type": "Polygon", "coordinates": [ [ [ -7.531282862924611, 49.781869321599714 ], [ -7.530851074718338, 49.781889994206807 ], [ -7.530850859908127, 49.781889982733283 ], [ -7.530850660925388, 49.781889929090646 ], [ -7.53085049700934, 49.781889838465503 ], [ -7.530850384008677, 49.781889719620196 ], [ -7.530850332849194, 49.781889584045636 ], [ -7.530847856578893, 49.781870434578231 ], [ -7.530847872823775, 49.781870293682218 ], [ -7.530847955908081, 49.781870163037155 ], [ -7.530848097598714, 49.781870055589053 ], [ -7.530848283855083, 49.781869981985295 ], [ -7.530848496220442, 49.781869949519539 ], [ -7.53128028425111, 49.781849276927844 ], [ -7.531280499061175, 49.781849288400565 ], [ -7.531280698044157, 49.781849342042435 ], [ -7.531280861960817, 49.781849432666952 ], [ -7.531280974962398, 49.781849551511804 ], [ -7.531281026123015, 49.781849687086151 ], [ -7.531283502561609, 49.781868836538742 ], [ -7.531283486317993, 49.781868977434769 ], [ -7.531283403234888, 49.781869108080116 ], [ -7.531283261545266, 49.781869215528715 ], [ -7.531283075289614, 49.781869289133162 ], [ -7.531282862924611, 49.781869321599714 ] ], [ [ -7.531282062645588, 49.781868459801828 ], [ -7.531279701895429, 49.781850204924332 ], [ -7.530849296492044, 49.781870811320658 ], [ -7.530851657082797, 49.781889066212194 ], [ -7.531282062645588, 49.781868459801828 ] ] ] } },
{ "type": "Feature", "properties": { "fid": 12, "handle": 1540, "block": -1, "etype": 18, "space": 0, "layer": "panels_27", "olinetype": "BYLAYER", "linetype": "", "color": "0,0,0,254", "ocolor": 256, "color24": -1, "transparency": 0, "lweight": -1, "linewidth": 0.0, "ltscale": 1.0, "visible": 1, "width": 0.0, "thickness": 0.0, "ext": "(3:0,0,0.1)", "panel_count": 27, "panel_id": null, "status": null }, "geometry": { "type": "Polygon", "coordinates": [ [ [ -7.531717805735424, 49.781829059125592 ], [ -7.531285899109499, 49.781849739044155 ], [ -7.531285683615478, 49.781849727463573 ], [ -7.531285484117373, 49.781849673451809 ], [ -7.531285320028902, 49.781849582264897 ], [ -7.531285207317958, 49.781849462776464 ], [ -7.531285156952759, 49.781849326614299 ], [ -7.531282830801817, 49.781830169966163 ], [ -7.531282847984755, 49.781830029568425 ], [ -7.53128293151746, 49.781829899530756 ], [ -7.531283073175057, 49.781829792657014 ], [ -7.531283259009545, 49.781829719470302 ], [ -7.531283470723127, 49.781829687176803 ], [ -7.531715377173224, 49.781809007273083 ], [ -7.531715592667105, 49.781809018852883 ], [ -7.531715792165453, 49.781809072863879 ], [ -7.531715956254541, 49.781809164050181 ], [ -7.531716068966407, 49.781809283538152 ], [ -7.531716119332748, 49.781809419700082 ], [ -7.531718445652202, 49.78182857633395 ], [ -7.531718428470528, 49.781828716731724 ], [ -7.531718344939019, 49.781828846769677 ], [ -7.531718203282422, 49.781828953643917 ], [ -7.53171801744865, 49.781829026831289 ], [ -7.531717805735424, 49.781829059125592 ] ], [ [ -7.531717008985248, 49.781828197161673 ], [ -7.531714791341347, 49.781809935438368 ], [ -7.531284267465882, 49.781830549143969 ], [ -7.531286484950166, 49.781848810880774 ], [ -7.531717008985248, 49.781828197161673 ] ] ] } },
{ "type": "Feature", "properties": { "fid": 13, "handle": 1541, "block": -1, "etype": 18, "space": 0, "layer": "panels_27", "olinetype": "BYLAYER", "linetype": "", "color": "0,0,0,254", "ocolor": 256, "color24": -1, "transparency": 0, "lweight": -1, "linewidth": 0.0, "ltscale": 1.0, "visible": 1, "width": 0.0, "thickness": 0.0, "ext": "(3:0,0,0.1)", "panel_count": 27, "panel_id": null, "status": null }, "geometry": { "type": "Polygon", "coordinates": [ [ [ -7.531280364744023, 49.781850004021955 ], [ -7.53084857670698, 49.781870676614162 ], [ -7.530848361896853, 49.781870665140623 ], [ -7.530848162914198, 49.781870611497993 ], [ -7.530847998998222, 49.781870520872843 ], [ -7.530847885997614, 49.781870402027522 ], [ -7.530847834838164, 49.781870266452955 ], [ -7.530845358570445, 49.781851116985393 ], [ -7.530845374815335, 49.781850976089395 ], [ -7.530845457899617, 49.781850845444332 ], [ -7.5308455995902, 49.78185073799623 ], [ -7.530845785846505, 49.781850664392486 ], [ -7.530845998211784, 49.78185063192673 ], [ -7.531277786073221, 49.781829959349928 ], [ -7.531278000883203, 49.781829970822656 ], [ -7.531278199866104, 49.781830024464554 ], [ -7.531278363782688, 49.781830115089072 ], [ -7.531278476784214, 49.781830233933917 ], [ -7.531278527944801, 49.78183036950827 ], [ -7.531281004380808, 49.78184951896101 ], [ -7.531280988137189, 49.781849659857045 ], [ -7.531280905054104, 49.781849790502378 ], [ -7.531280763364529, 49.781849897950984 ], [ -7.531280577108943, 49.78184997155541 ], [ -7.531280364744023, 49.781850004021955 ] ], [ [ -7.531279564465392, 49.781849142224047 ], [ -7.531277203717696, 49.781830887346395 ], [ -7.530846798482995, 49.781851493727899 ], [ -7.530849159071286, 49.78186974861957 ], [ -7.531279564465392, 49.781849142224047 ] ] ] } },
{ "type": "Feature", "properties": { "fid": 14, "handle": 1543, "block": -1, "etype": 18, "space": 0, "layer": "panels_27", "olinetype": "BYLAYER", "linetype": "", "color": "0,0,0,254", "ocolor": 256, "color24": -1, "transparency": 0, "lweight": -1, "linewidth": 0.0, "ltscale": 1.0, "visible": 1, "width": 0.0, "thickness": 0.0, "ext": "(3:0,0,0.1)", "panel_count": 27, "panel_id": null, "status": null }, "geometry": { "type": "Polygon", "coordinates": [ [ [ -7.531457291802658, 49.781791661262822 ], [ -7.531025520940375, 49.781812333706249 ], [ -7.531025306198864, 49.781812322243795 ], [ -7.531025107267839, 49.781812268638376 ], [ -7.531024943369116, 49.781812178069615 ], [ -7.531024830339498, 49.781812059288804 ], [ -7.531024779100533, 49.781811923773191 ], [ -7.531022287746672, 49.781792775030681 ], [ -7.531022303896788, 49.781792634085022 ], [ -7.531022386935245, 49.781792503379123 ], [ -7.531022528628251, 49.781792395873332 ], [ -7.531022714926041, 49.781792322227517 ], [ -7.531022927355997, 49.781792289744118 ], [ -7.531454698042698, 49.781771617316153 ], [ -7.531454912784065, 49.781771628777825 ], [ -7.531455111715334, 49.781771682382491 ], [ -7.531455275614666, 49.781771772950599 ], [ -7.5314553886452, 49.781771891730962 ], [ -7.531455439885304, 49.781772027246362 ], [ -7.531457931407432, 49.781791175974 ], [ -7.531457915258584, 49.781791316919687 ], [ -7.531457832221323, 49.781791447625849 ], [ -7.531457690529327, 49.781791555132145 ], [ -7.531457504232258, 49.781791628778649 ], [ -7.531457291802658, 49.781791661262822 ] ], [ [ -7.53145649116766, 49.78179079948319 ], [ -7.531454116038601, 49.781772545296768 ], [ -7.531023727983577, 49.78179315152704 ], [ -7.531026102953252, 49.781811405727517 ], [ -7.53145649116766, 49.78179079948319 ] ] ] } },
{ "type": "Feature", "properties": { "fid": 15, "handle": 1544, "block": -1, "etype": 18, "space": 0, "layer": "panels_27", "olinetype": "BYLAYER", "linetype": "", "color": "0,0,0,254", "ocolor": 256, "color24": -1, "transparency": 0, "lweight": -1, "linewidth": 0.0, "ltscale": 1.0, "visible": 1, "width": 0.0, "thickness": 0.0, "ext": "(3:0,0,0.1)", "panel_count": 27, "panel_id": null, "status": null }, "geometry": { "type": "Polygon", "coordinates": [ [ [ -7.531454778406107, 49.781772344416396 ], [ -7.531023007713026, 49.781793016844873 ], [ -7.5310227929716, 49.781793005382404 ], [ -7.531022594040662, 49.781792951776978 ], [ -7.53102243014201, 49.781792861208224 ], [ -7.531022317112448, 49.781792742427406 ], [ -7.531022265873513, 49.781792606911786 ], [ -7.531019774522247, 49.781773458169134 ], [ -7.53101979067237, 49.781773317223447 ], [ -7.531019873710807, 49.781773186517583 ], [ -7.531020015403766, 49.781773079011785 ], [ -7.531020201701486, 49.78177300536597 ], [ -7.531020414131364, 49.7817729728826 ], [ -7.53145218464886, 49.781752300469584 ], [ -7.531452399390142, 49.781752311931236 ], [ -7.531452598321329, 49.781752365535922 ], [ -7.531452762220589, 49.781752456104044 ], [ -7.531452875251068, 49.781752574884408 ], [ -7.531452926491137, 49.781752710399793 ], [ -7.53145541801067, 49.781771859127602 ], [ -7.531455401861815, 49.781772000073275 ], [ -7.531455318824578, 49.781772130779437 ], [ -7.531455177132627, 49.781772238285733 ], [ -7.531454990835628, 49.78177231193223 ], [ -7.531454778406107, 49.781772344416396 ] ], [ [ -7.531453977771498, 49.781771482636714 ], [ -7.531451602644916, 49.781753228450164 ], [ -7.53102121475855, 49.781773834665529 ], [ -7.531023589725752, 49.781792088866155 ], [ -7.531453977771498, 49.781771482636714 ] ] ] } },
{ "type": "Feature", "properties": { "fid": 16, "handle": 1545, "block": -1, "etype": 18, "space": 0, "layer": "panels_14", "olinetype": "BYLAYER", "linetype": "", "color": "0,0,0,254", "ocolor": 256, "color24": -1, "transparency": 0, "lweight": -1, "linewidth": 0.0, "ltscale": 1.0, "visible": 1, "width": 0.0, "thickness": 0.0, "ext": "(3:0,0,0.1)", "panel_count": 14, "panel_id": null, "status": null }, "geometry": { "type": "Polygon", "coordinates": [ [ [ -7.530789586674024, 49.781962246697624 ], [ -7.530565810632814, 49.781972959597496 ], [ -7.530565595378324, 49.781972948053472 ], [ -7.530565396061034, 49.781972894170408 ], [ -7.530565232033301, 49.781972803179947 ], [ -7.53056511922111, 49.781972683916663 ], [ -7.530565068577756, 49.781972547960201 ], [ -7.530562689956533, 49.78195339381363 ], [ -7.530562706812677, 49.781953253240737 ], [ -7.53056279019037, 49.781953122990203 ], [ -7.530562931861581, 49.781953015915626 ], [ -7.530563117845645, 49.78195294258353 ], [ -7.530563329788939, 49.781952910230636 ], [ -7.53078710573908, 49.781942197338559 ], [ -7.530787320993453, 49.781942208882157 ], [ -7.530787520310829, 49.781942262764851 ], [ -7.530787684338845, 49.781942353754992 ], [ -7.53078779715149, 49.781942473018034 ], [ -7.530787847795419, 49.781942608974376 ], [ -7.53079022650418, 49.781961763113451 ], [ -7.530790209648696, 49.781961903686351 ], [ -7.53079012627161, 49.781962033937035 ], [ -7.530789984600901, 49.781962141011874 ], [ -7.530789798617174, 49.781962214344318 ], [ -7.530789586674024, 49.781962246697624 ] ], [ [ -7.530788788698632, 49.781961384786143 ], [ -7.530786521112818, 49.78194312544111 ], [ -7.530564127760304, 49.781953772143815 ], [ -7.530566395263699, 49.781972031495918 ], [ -7.530788788698632, 49.781961384786143 ] ] ] } },
{ "type": "Feature", "properties": { "fid": 17, "handle": 1546, "block": -1, "etype": 18, "space": 0, "layer": "panels_13", "olinetype": "BYLAYER", "linetype": "", "color": "0,0,0,254", "ocolor": 256, "color24": -1, "transparency": 0, "lweight": -1, "linewidth": 0.0, "ltscale": 1.0, "visible": 1, "width": 0.0, "thickness": 0.0, "ext": "(3:0,0,0.1)", "panel_count": 13, "panel_id": null, "status": null }, "geometry": { "type": "Polygon", "coordinates": [ [ [ -7.530787187081303, 49.781942924392247 ], [ -7.530579418826523, 49.781952870957809 ], [ -7.53057920357212, 49.781952859413835 ], [ -7.5305790042549, 49.781952805530786 ], [ -7.530578840227216, 49.781952714540331 ], [ -7.530578727415041, 49.781952595277069 ], [ -7.530578676771674, 49.781952459320607 ], [ -7.530576298146737, 49.781933305174427 ], [ -7.53057631500284, 49.78193316460154 ], [ -7.530576398380466, 49.781933034350992 ], [ -7.530576540051588, 49.781932927276387 ], [ -7.530576726035557, 49.781932853944284 ], [ -7.530576937978751, 49.781932821591369 ], [ -7.530784706148983, 49.78192287503304 ], [ -7.530784921403269, 49.781922886576638 ], [ -7.530785120720561, 49.781922940459339 ], [ -7.530785284748505, 49.78192303144948 ], [ -7.530785397561097, 49.781923150712544 ], [ -7.530785448204997, 49.781923286668878 ], [ -7.530787826911246, 49.781942440808109 ], [ -7.530787810055755, 49.781942581380989 ], [ -7.530787726678692, 49.781942711631679 ], [ -7.530787585008031, 49.781942818706518 ], [ -7.530787399024371, 49.781942892038963 ], [ -7.530787187081303, 49.781942924392247 ] ], [ [ -7.530786389106302, 49.781942062480738 ], [ -7.530784121522878, 49.781923803135577 ], [ -7.530577735949993, 49.781933683504455 ], [ -7.530580003456929, 49.781951942856196 ], [ -7.530786389106302, 49.781942062480738 ] ] ] } },
{ "type": "Feature", "properties": { "fid": 18, "handle": 1837, "block": -1, "etype": 18, "space": 0, "layer": "panels_27", "olinetype": "BYLAYER", "linetype": "", "color": "0,0,0,254", "ocolor": 256, "color24": -1, "transparency": 0, "lweight": -1, "linewidth": 0.0, "ltscale": 1.0, "visible": 1, "width": 0.0, "thickness": 0.0, "ext": "(3:0,0,0.1)", "panel_count": 27, "panel_id": null, "status": null }, "geometry": { "type": "Polygon", "coordinates": [ [ [ -7.530797391518254, 49.782031181822838 ], [ -7.530365497895398, 49.782051857628083 ], [ -7.530365282525407, 49.782051846065542 ], [ -7.530365083121289, 49.78205179211978 ], [ -7.530364919064834, 49.782051701034298 ], [ -7.530364806302087, 49.782051581662415 ], [ -7.53036475579342, 49.782051445606932 ], [ -7.530362402552179, 49.782032290242419 ], [ -7.530362419566833, 49.782032149753562 ], [ -7.53036250302069, 49.782032019605495 ], [ -7.530362644687058, 49.782031912627907 ], [ -7.530362830600782, 49.782031839366439 ], [ -7.530363042434897, 49.782031807043012 ], [ -7.53079493588196, 49.782011131252702 ], [ -7.530795151251808, 49.782011142814454 ], [ -7.530795350656173, 49.782011196759456 ], [ -7.530795514713245, 49.782011287844341 ], [ -7.530795627476913, 49.782011407215748 ], [ -7.530795677986719, 49.782011543271004 ], [ -7.530798031396436, 49.78203069862117 ], [ -7.530798014383048, 49.782030839110043 ], [ -7.530797930930384, 49.782030969258393 ], [ -7.530797789265021, 49.782031076236478 ], [ -7.530797603352013, 49.782031149498629 ], [ -7.530797391518254, 49.782031181822838 ] ], [ [ -7.530796594136176, 49.782030319882999 ], [ -7.530794350667548, 49.782012059383433 ], [ -7.530363839809549, 49.782032668986119 ], [ -7.530366083118602, 49.78205092949927 ], [ -7.530796594136176, 49.782030319882999 ] ] ] } }
]
}
